NORAD_CAT_ID,OBJECT_NAME,OBJECT_TYPE,EPOCH,MEAN_MOTION,ECCENTRICITY,INCLINATION,RA_OF_ASC_NODE,ARG_OF_PERICENTER,MEAN_ANOMALY,BSTAR,MEAN_MOTION_DOT,MEAN_MOTION_DDOT,TLE_LINE0,TLE_LINE1,TLE_LINE2,SEMIMAJOR_AXIS,PERIOD,APOGEE,PERIGEE,DECAYED
53000.0,STARLINK-4194,PAYLOAD,2024-07-23 09:12:11,15.0884103,0.0001401,53.2146,242.0655,91.1072,269.0081,0.00023281,3.419e-05,0.0,0 STARLINK-4194,1 53000U 22076Q   24205.38346751  .00003419  00000-0  23281-3 0  9991,2 53000  53.2146 242.0655 0001401  91.1072 269.0081 15.08841030113596,6917.877,95.437,540.711,538.773,0.0
53000.0,STARLINK-4194,PAYLOAD,2024-07-24 05:52:12,15.0883624,0.000138,53.2145,238.1946,91.7352,268.3799,4.5755e-05,4.4e-06,0.0,0 STARLINK-4194,1 53000U 22076Q   24206.24458944  .00000440  00000-0  45755-4 0  9997,2 53000  53.2145 238.1946 0001380  91.7352 268.3799 15.08836240113727,6917.892,95.438,540.712,538.802,0.0
53000.0,STARLINK-4194,PAYLOAD,2024-07-24 09:02:59,15.08833434,0.0001294,53.2157,237.6008,91.2951,268.8189,2.2722e-05,7.4e-07,0.0,0 STARLINK-4194,1 53000U 22076Q   24206.37707352  .00000074  00000-0  22722-4 0  9993,2 53000  53.2157 237.6008 0001294  91.2951 268.8189 15.08833434113277,6917.9,95.438,540.661,538.87,0.0
53000.0,STARLINK-4194,PAYLOAD,2024-07-25 05:42:59,15.0884111,0.0001235,53.2156,233.7347,89.1945,270.9188,0.00010458,1.377e-05,0.0,0 STARLINK-4194,1 53000U 22076Q   24207.23818821  .00001377  00000-0  10458-3 0  9992,2 53000  53.2156 233.7347 0001235  89.1945 270.9188 15.08841110113401,6917.877,95.437,540.596,538.888,0.0
53000.0,STARLINK-4194,PAYLOAD,2024-07-25 08:53:45,15.08842819,0.0001253,53.2156,233.1404,89.2175,270.8961,0.00011657,1.568e-05,0.0,0 STARLINK-4194,1 53000U 22076Q   24207.37066691  .00001568  00000-0  11657-3 0  9991,2 53000  53.2156 233.1404 0001253  89.2175 270.8961 15.08842819113893,6917.872,95.437,540.604,538.87,0.0
53000.0,STARLINK-4194,PAYLOAD,2024-07-26 05:33:47,15.0883208,0.0001244,53.2159,229.2777,85.8607,274.2527,0.0001007,1.315e-05,0.0,0 STARLINK-4194,1 53000U 22076Q   24208.23179493  .00001315  00000-0  10070-3 0  9990,2 53000  53.2159 229.2777 0001244  85.8607 274.2527 15.08832080114028,6917.905,95.438,540.63,538.909,0.0
53000.0,STARLINK-4194,PAYLOAD,2024-07-26 10:19:56,15.08834215,0.0001295,53.216,228.3854,90.2739,269.8402,0.00011103,1.479e-05,0.0,0 STARLINK-4194,1 53000U 22076Q   24208.43051415  .00001479  00000-0  11103-3 0  9994,2 53000  53.2160 228.3854 0001295  90.2739 269.8402 15.08834215113582,6917.898,95.438,540.659,538.867,0.0
53000.0,STARLINK-4194,PAYLOAD,2024-07-26 18:16:51,15.08839972,0.0001276,53.2159,226.899,91.0574,269.0565,0.00012086,1.636e-05,0.0,0 STARLINK-4194,1 53000U 22076Q   24208.76171105  .00001636  00000-0  12086-3 0  9995,2 53000  53.2159 226.8990 0001276  91.0574 269.0565 15.08839972114105,6917.88,95.438,540.628,538.863,0.0
53000.0,STARLINK-4194,PAYLOAD,2024-07-27 05:24:33,15.08842234,0.0001304,53.2161,224.8174,92.784,267.3301,6.1249e-05,6.87e-06,0.0,0 STARLINK-4194,1 53000U 22076Q   24209.22539123  .00000687  00000-0  61249-4 0  9996,2 53000  53.2161 224.8174 0001304  92.7840 267.3301 15.08842234113705,6917.874,95.437,540.641,538.836,0.0
53000.0,STARLINK-4194,PAYLOAD,2024-07-27 18:07:38,15.08846612,0.0001363,53.2155,222.4378,88.8314,271.2835,7.5496e-05,9.14e-06,0.0,0 STARLINK-4194,1 53000U 22076Q   24209.75530569  .00000914  00000-0  75496-4 0  9991,2 53000  53.2155 222.4378 0001363  88.8314 271.2835 15.08846612113783,6917.86,95.437,540.668,538.782,0.0
53000.0,STARLINK-4194,PAYLOAD,2024-07-28 05:15:20,15.08839316,0.00014,53.2156,220.3561,89.1537,270.9615,0.00012045,1.63e-05,0.0,0 STARLINK-4194,1 53000U 22076Q   24210.21899031  .00001630  00000-0  12045-3 0  9992,2 53000  53.2156 220.3561 0001400  89.1537 270.9615 15.08839316114324,6917.882,95.438,540.716,538.779,0.0
53000.0,STARLINK-4194,PAYLOAD,2024-07-28 10:01:30,15.08841494,0.0001305,53.215,219.4644,92.4654,267.6487,0.00013542,1.868e-05,0.0,0 STARLINK-4194,1 53000U 22076Q   24210.41770920  .00001868  00000-0  13542-3 0  9995,2 53000  53.2150 219.4644 0001305  92.4654 267.6487 15.08841494113880,6917.876,95.437,540.644,538.838,0.0
53000.0,STARLINK-4194,PAYLOAD,2024-07-29 09:52:17,15.08841827,0.0001257,53.2146,215.0028,93.2176,266.896,8.6589e-05,1.091e-05,0.0,0 STARLINK-4194,1 53000U 22076Q   24211.41130978  .00001091  00000-0  86589-4 0  9999,2 53000  53.2146 215.0028 0001257  93.2176 266.8960 15.08841827114504,6917.875,95.437,540.609,538.87,0.0
53000.0,STARLINK-4194,PAYLOAD,2024-07-30 06:32:17,15.0884243,0.0001225,53.2153,211.137,93.3919,266.7214,0.00010279,1.349e-05,0.0,0 STARLINK-4194,1 53000U 22076Q   24212.27242976  .00001349  00000-0  10279-3 0  9994,2 53000  53.2153 211.1370 0001225  93.3919 266.7214 15.08842430114164,6917.873,95.437,540.585,538.891,0.0
53000.0,STARLINK-4194,PAYLOAD,2024-07-31 06:23:05,15.08837592,0.0001321,53.2158,206.6758,96.9499,263.1644,7.0039e-05,8.27e-06,0.0,0 STARLINK-4194,1 53000U 22076Q   24213.26603421  .00000827  00000-0  70039-4 0  9991,2 53000  53.2158 206.6758 0001321  96.9499 263.1644 15.08837592114315,6917.888,95.438,540.667,538.839,0.0
53000.0,STARLINK-4194,PAYLOAD,2024-08-01 06:13:51,15.08845258,0.0001336,53.216,202.2152,97.2486,262.8658,0.00013532,1.867e-05,0.0,0 STARLINK-4194,1 53000U 22076Q   24214.25962871  .00001867  00000-0  13532-3 0  9997,2 53000  53.2160 202.2152 0001336  97.2486 262.8658 15.08845258114931,6917.864,95.437,540.654,538.805,0.0
53000.0,STARLINK-4194,PAYLOAD,2024-08-01 22:07:42,15.08846565,0.0001305,53.216,199.2417,97.1256,262.9885,0.00018977,2.734e-05,0.0,0 STARLINK-4194,1 53000U 22076Q   24214.92202497  .00002734  00000-0  18977-3 0  9994,2 53000  53.2160 199.2417 0001305  97.1256 262.9885 15.08846565114564,6917.86,95.437,540.628,538.823,0.0
53000.0,STARLINK-4194,PAYLOAD,2024-08-02 06:04:38,15.08849978,0.0001328,53.2147,197.7555,95.6188,264.4955,0.00021438,3.126e-05,0.0,0 STARLINK-4194,1 53000U 22076Q   24215.25322503  .00003126  00000-0  21438-3 0  9994,2 53000  53.2147 197.7555 0001328  95.6188 264.4955 15.08849978114619,6917.85,95.437,540.634,538.796,0.0
53000.0,STARLINK-4194,PAYLOAD,2024-08-02 21:58:29,15.08847329,0.000215,53.2156,194.7834,94.7344,265.3893,6.2567e-06,-1.89e-06,0.0,0 STARLINK-4194,1 53000U 22076Q   24215.91562490 -.00000189  00000-0  62567-5 0  9995,2 53000  53.2156 194.7834 0002150  94.7344 265.3893 15.08847329115186,6917.858,95.437,541.21,538.236,0.0
53000.0,STARLINK-4194,PAYLOAD,2024-08-03 04:20:03,15.08832909,0.0001514,53.2151,193.593,80.9869,279.1295,-0.00018278,-3.195e-05,0.0,0 STARLINK-4194,1 53000U 22076Q   24216.18059162 -.00003195  00000-0 -18278-3 0  9991,2 53000  53.2151 193.5930 0001514  80.9869 279.1295 15.08832909115229,6917.902,95.438,540.814,538.72,0.0
53000.0,STARLINK-4194,PAYLOAD,2024-08-03 07:30:49,15.0883488,0.0001542,53.2153,192.9982,82.9549,277.1618,-0.00014132,-2.536e-05,0.0,0 STARLINK-4194,1 53000U 22076Q   24216.31307093 -.00002536  00000-0 -14132-3 0  9998,2 53000  53.2153 192.9982 0001542  82.9549 277.1618 15.08834880114775,6917.896,95.438,540.828,538.694,0.0
53000.0,STARLINK-4194,PAYLOAD,2024-08-03 15:27:44,15.0883862,0.0001544,53.2156,191.5116,82.9662,277.1506,-6.7954e-05,-1.369e-05,0.0,0 STARLINK-4194,1 53000U 22076Q   24216.64426973 -.00001369  00000-0 -67954-4 0  9997,2 53000  53.2156 191.5116 0001544  82.9662 277.1506 15.08838620115290,6917.885,95.438,540.818,538.681,0.0
53000.0,STARLINK-4194,PAYLOAD,2024-08-04 04:10:50,15.08830341,0.0001648,53.2164,189.1335,82.2197,277.8982,-7.1419e-05,-1.424e-05,0.0,0 STARLINK-4194,1 53000U 22076Q   24217.17419751 -.00001424  00000-0 -71419-4 0  9995,2 53000  53.2164 189.1335 0001648  82.2197 277.8982 15.08830341115372,6917.91,95.438,540.915,538.635,0.0
53000.0,STARLINK-4194,PAYLOAD,2024-08-04 05:46:13,15.08832006,0.0001619,53.2159,188.8359,81.1636,278.9539,-3.7309e-05,-8.82e-06,0.0,0 STARLINK-4194,1 53000U 22076Q   24217.24043711 -.00000882  00000-0 -37309-4 0  9999,2 53000  53.2159 188.8359 0001619  81.1636 278.9539 15.08832006114911,6917.905,95.438,540.89,538.65,0.0
53000.0,STARLINK-4194,PAYLOAD,2024-08-04 15:18:32,15.08843681,0.0001572,53.2159,187.0515,86.4183,273.6988,0.00013023,1.785e-05,0.0,0 STARLINK-4194,1 53000U 22076Q   24217.63787271  .00001785  00000-0  13023-3 0  9995,2 53000  53.2159 187.0515 0001572  86.4183 273.6988 15.08843681115449,6917.869,95.437,540.822,538.647,0.0
53000.0,STARLINK-4194,PAYLOAD,2024-08-05 18:20:05,15.08825971,0.0001343,53.2149,181.9942,91.9203,268.1943,-0.00045216,-7.474e-05,0.0,0 STARLINK-4194,1 53000U 22076Q   24218.76395446 -.00007474  00000-0 -45216-3 0  9991,2 53000  53.2149 181.9942 0001343  91.9203 268.1943 15.08825971115616,6917.923,95.438,540.717,538.859,0.0
53000.0,STARLINK-4194,PAYLOAD,2024-08-06 07:03:11,15.08819495,0.0001358,53.2148,179.6151,84.9661,275.1486,-0.00029039,-4.904e-05,0.0,0 STARLINK-4194,1 53000U 22076Q   24219.29388026 -.00004904  00000-0 -29039-3 0  9996,2 53000  53.2148 179.6151 0001358  84.9661 275.1486 15.08819495115228,6917.943,95.439,540.748,538.869,0.0
53000.0,STARLINK-4194,PAYLOAD,2024-08-07 02:07:49,15.08857033,0.0001333,53.2154,176.0494,75.7146,284.3994,0.0016619,0.00026272,0.0,0 STARLINK-4194,1 53000U 22076Q   24220.08876405  .00026272  00000-0  16619-2 0  9997,2 53000  53.2154 176.0494 0001333  75.7146 284.3994 15.08857033115816,6917.828,95.436,540.615,538.771,0.0
53000.0,STARLINK-4194,PAYLOAD,2024-08-08 01:58:35,15.08873381,0.0001368,53.2161,171.589,88.6218,271.4931,0.0020939,0.00033224,0.0,0 STARLINK-4194,1 53000U 22076Q   24221.08235970  .00033224  00000-0  20939-2 0  9999,2 53000  53.2161 171.5890 0001368  88.6218 271.4931 15.08873381115491,6917.778,95.435,540.59,538.697,0.0
53000.0,STARLINK-4194,PAYLOAD,2024-08-08 21:03:13,15.08859179,0.0001495,53.2164,168.0223,97.6102,262.506,0.0019358,0.00030671,0.0,0 STARLINK-4194,1 53000U 22076Q   24221.87724116  .00030671  00000-0  19358-2 0  9997,2 53000  53.2164 168.0223 0001495  97.6102 262.5060 15.08859179116087,6917.822,95.436,540.721,538.653,0.0
